start=new Date('2022-05-28T00:00:00.000Z').valueOf();
sats=[{"RCS_SIZE":"LARGE","COUNTRY_CODE":"US","ARG_OF_PERICENTER":"35.6747","LAUNCH_DATE":"2020-01-07","DECAY_DATE":null,"TLE_LINE2":"2 44931  53.0534  66.6506 0003505  35.6747 324.4478 15.10695092132339","MEAN_ELEMENT_THEORY":"SGP4","BSTAR":"0.00036323000000","APOAPSIS":"536.504","MEAN_MOTION_DDOT":"0.0000000000000","TIME_SYSTEM":"UTC","GP_ID":"204676358","MEAN_MOTION_DOT":"0.00005795","EPHEMERIS_TYPE":"0","ECCENTRICITY":"0.00035050","INCLINATION":"53.0534","EPOCH":"2022-05-27T11:57:49.114368","CLASSIFICATION_TYPE":"U","REV_AT_EPOCH":"13233","PERIOD":"95.320","OBJECT_NAME":"STARLINK-1128","FILE":"3467585","SITE":"AFETR","REF_FRAME":"TEME","NORAD_CAT_ID":"44931","PERIAPSIS":"531.658","OBJECT_ID":"2020-001T","MEAN_MOTION":"15.10695092","TLE_LINE1":"1 44931U 20001T   22147.49848512  .00005795  00000-0  36323-3 0  9997","ELEMENT_SET_NO":"999","SEMIMAJOR_AXIS":"6912.216","CENTER_NAME":"EARTH","MEAN_ANOMALY":"324.4478","RA_OF_ASC_NODE":"66.6506","OBJECT_TYPE":"PAYLOAD"},{"TIME_SYSTEM":"UTC","GP_ID":"204677609","MEAN_MOTION_DDOT":"0.0000000000000","EPHEMERIS_TYPE":"0","MEAN_MOTION_DOT":"-0.00000037","ECCENTRICITY":"0.00015720","INCLINATION":"53.0556","RCS_SIZE":"LARGE","ARG_OF_PERICENTER":"48.9078","COUNTRY_CODE":"US","DECAY_DATE":null,"LAUNCH_DATE":"2020-01-07","APOAPSIS":"548.318","BSTAR":"0.00001639300000","MEAN_ELEMENT_THEORY":"SGP4","TLE_LINE2":"2 44932  53.0556  71.4773 0001572  48.9078 311.2047 15.06394866132752","SEMIMAJOR_AXIS":"6925.364","MEAN_ANOMALY":"311.2047","CENTER_NAME":"EARTH","RA_OF_ASC_NODE":"71.4773","OBJECT_TYPE":"PAYLOAD","CLASSIFICATION_TYPE":"U","EPOCH":"2022-05-27T12:10:22.514592","FILE":"3467585","OBJECT_NAME":"STARLINK-1130","PERIOD":"95.592","REV_AT_EPOCH":"13275","OBJECT_ID":"2020-001U","PERIAPSIS":"546.141","NORAD_CAT_ID":"44932","SITE":"AFETR","REF_FRAME":"TEME","TLE_LINE1":"1 44932U 20001U   22147.50720503 -.00000037  00000-0  16393-4 0  9990","ELEMENT_SET_NO":"999","MEAN_MOTION":"15.06394866"},{"GP_ID":"204689838","TIME_SYSTEM":"UTC","MEAN_MOTION_DDOT":"0.0000000000000","EPHEMERIS_TYPE":"0","MEAN_MOTION_DOT":"-0.00000194","ECCENTRICITY":"0.00016080","INCLINATION":"53.0572","RCS_SIZE":"LARGE","ARG_OF_PERICENTER":"43.1548","COUNTRY_CODE":"US","DECAY_DATE":null,"LAUNCH_DATE":"2020-01-07","APOAPSIS":"548.341","BSTAR":"0.00000588150000","MEAN_ELEMENT_THEORY":"SGP4","TLE_LINE2":"2 44933  53.0572  72.8605 0001608  43.1548 316.9567 15.06395523132760","SEMIMAJOR_AXIS":"6925.362","MEAN_ANOMALY":"316.9567","CENTER_NAME":"EARTH","RA_OF_ASC_NODE":"72.8605","OBJECT_TYPE":"PAYLOAD","CLASSIFICATION_TYPE":"U","EPOCH":"2022-05-27T04:49:49.965600","FILE":"3467891","PERIOD":"95.592","OBJECT_NAME":"STARLINK-1144","REV_AT_EPOCH":"13276","PERIAPSIS":"546.114","OBJECT_ID":"2020-001V","NORAD_CAT_ID":"44933","SITE":"AFETR","REF_FRAME":"TEME","TLE_LINE1":"1 44933U 20001V   22147.20127275 -.00000194  00000-0  58815-5 0  9995","ELEMENT_SET_NO":"999","MEAN_MOTION":"15.06395523"},{"MEAN_MOTION_DDOT":"0.0000000000000","TIME_SYSTEM":"UTC","GP_ID":"204713577","MEAN_MOTION_DOT":"-0.00000648","EPHEMERIS_TYPE":"0","ECCENTRICITY":"0.00014810","INCLINATION":"53.0565","RCS_SIZE":"LARGE","COUNTRY_CODE":"US","ARG_OF_PERICENTER":"65.3067","LAUNCH_DATE":"2020-01-07","DECAY_DATE":null,"TLE_LINE2":"2 44934  53.0565  49.8198 0001481  65.3067 294.8076 15.06388284131859","MEAN_ELEMENT_THEORY":"SGP4","APOAPSIS":"548.275","BSTAR":"-0.00002465100000","SEMIMAJOR_AXIS":"6925.384","CENTER_NAME":"EARTH","MEAN_ANOMALY":"294.8076","RA_OF_ASC_NODE":"49.8198","OBJECT_TYPE":"PAYLOAD","EPOCH":"2022-05-27T21:03:48.364704","CLASSIFICATION_TYPE":"U","REV_AT_EPOCH":"13185","OBJECT_NAME":"STARLINK-1071","PERIOD":"95.593","FILE":"3468079","SITE":"AFETR","REF_FRAME":"TEME","NORAD_CAT_ID":"44934","OBJECT_ID":"2020-001W","PERIAPSIS":"546.224","TLE_LINE1":"1 44934U 20001W   22147.87764311 -.00000648  00000-0 -24651-4 0  9992","MEAN_MOTION":"15.06388284","ELEMENT_SET_NO":"999"},{"MEAN_MOTION":"15.06396461","TLE_LINE1":"1 44937U 20001Z   22147.92188023  .00000234  00000-0  34609-4 0  9994","ELEMENT_SET_NO":"999","SITE":"AFETR","REF_FRAME":"TEME","NORAD_CAT_ID":"44937","OBJECT_ID":"2020-001Z","PERIAPSIS":"546.072","REV_AT_EPOCH":"13186","PERIOD":"95.592","OBJECT_NAME":"STARLINK-1079","FILE":"3468079","EPOCH":"2022-05-27T22:07:30.451872","CLASSIFICATION_TYPE":"U","OBJECT_TYPE":"PAYLOAD","RA_OF_ASC_NODE":"49.6177","CENTER_NAME":"EARTH","MEAN_ANOMALY":"295.4843","SEMIMAJOR_AXIS":"6925.359","TLE_LINE2":"2 44937  53.0566  49.6177 0001664  64.6318 295.4843 15.06396461131868","MEAN_ELEMENT_THEORY":"SGP4","APOAPSIS":"548.377","BSTAR":"0.00003460900000","LAUNCH_DATE":"2020-01-07","DECAY_DATE":null,"COUNTRY_CODE":"US","ARG_OF_PERICENTER":"64.6318","RCS_SIZE":"LARGE","INCLINATION":"53.0566","ECCENTRICITY":"0.00016640","MEAN_MOTION_DOT":"0.00000234","EPHEMERIS_TYPE":"0","MEAN_MOTION_DDOT":"0.0000000000000","TIME_SYSTEM":"UTC","GP_ID":"204713821"},{"SEMIMAJOR_AXIS":"6925.335","MEAN_ANOMALY":"296.7223","CENTER_NAME":"EARTH","RA_OF_ASC_NODE":"49.7676","OBJECT_TYPE":"PAYLOAD","CLASSIFICATION_TYPE":"U","EPOCH":"2022-05-27T21:19:43.980672","OBJECT_NAME":"STARLINK-1082","PERIOD":"95.592","FILE":"3468079","REV_AT_EPOCH":"13185","OBJECT_ID":"2020-001AA","PERIAPSIS":"545.891","SITE":"AFETR","REF_FRAME":"TEME","NORAD_CAT_ID":"44938","MEAN_MOTION":"15.06404278","TLE_LINE1":"1 44938U 20001AA  22147.88870348  .00005054  00000-0  35793-3 0  9997","ELEMENT_SET_NO":"999","TIME_SYSTEM":"UTC","GP_ID":"204712579","MEAN_MOTION_DDOT":"0.0000000000000","EPHEMERIS_TYPE":"0","MEAN_MOTION_DOT":"0.00005054","INCLINATION":"53.0558","ECCENTRICITY":"0.00018910","RCS_SIZE":"LARGE","ARG_OF_PERICENTER":"63.3959","COUNTRY_CODE":"US","DECAY_DATE":null,"LAUNCH_DATE":"2020-01-07","APOAPSIS":"548.510","BSTAR":"0.00035793000000","TLE_LINE2":"2 44938  53.0558  49.7676 0001891  63.3959 296.7223 15.06404278131855","MEAN_ELEMENT_THEORY":"SGP4"},{"INCLINATION":"53.0552","ECCENTRICITY":"0.00019120","EPHEMERIS_TYPE":"0","MEAN_MOTION_DOT":"-0.00000392","GP_ID":"204712829","TIME_SYSTEM":"UTC","MEAN_MOTION_DDOT":"0.0000000000000","APOAPSIS":"548.569","BSTAR":"-0.00000743640000","MEAN_ELEMENT_THEORY":"SGP4","TLE_LINE2":"2 44939  53.0552  49.7257 0001912  48.1802 311.9350 15.06389692131850","DECAY_DATE":null,"LAUNCH_DATE":"2020-01-07","ARG_OF_PERICENTER":"48.1802","COUNTRY_CODE":"US","RCS_SIZE":"LARGE","OBJECT_TYPE":"PAYLOAD","RA_OF_ASC_NODE":"49.7257","MEAN_ANOMALY":"311.9350","CENTER_NAME":"EARTH","SEMIMAJOR_AXIS":"6925.380","TLE_LINE1":"1 44939U 20001AB  22147.89607414 -.00000392  00000-0 -74364-5 0  9992","ELEMENT_SET_NO":"999","MEAN_MOTION":"15.06389692","PERIAPSIS":"545.921","OBJECT_ID":"2020-001AB","NORAD_CAT_ID":"44939","REF_FRAME":"TEME","SITE":"AFETR","FILE":"3468079","OBJECT_NAME":"STARLINK-1083","PERIOD":"95.593","REV_AT_EPOCH":"13185","CLASSIFICATION_TYPE":"U","EPOCH":"2022-05-27T21:30:20.805696"},{"RCS_SIZE":"LARGE","ARG_OF_PERICENTER":"49.1903","COUNTRY_CODE":"US","DECAY_DATE":null,"LAUNCH_DATE":"2020-01-07","BSTAR":"0.00001191000000","APOAPSIS":"548.585","TLE_LINE2":"2 44940  53.0567  49.6823 0001969  49.1903 310.9257 15.06397358131854","MEAN_ELEMENT_THEORY":"SGP4","GP_ID":"204714077","TIME_SYSTEM":"UTC","MEAN_MOTION_DDOT":"0.0000000000000","EPHEMERIS_TYPE":"0","MEAN_MOTION_DOT":"-0.00000104","ECCENTRICITY":"0.00019690","INCLINATION":"53.0567","CLASSIFICATION_TYPE":"U","EPOCH":"2022-05-27T21:46:16.019904","OBJECT_NAME":"STARLINK-1091","PERIOD":"95.592","FILE":"3468079","REV_AT_EPOCH":"13185","OBJECT_ID":"2020-001AC","PERIAPSIS":"545.858","REF_FRAME":"TEME","SITE":"AFETR","NORAD_CAT_ID":"44940","TLE_LINE1":"1 44940U 20001AC  22147.90712986 -.00000104  00000-0  11910-4 0  9994","MEAN_MOTION":"15.06397358","ELEMENT_SET_NO":"999","SEMIMAJOR_AXIS":"6925.357","MEAN_ANOMALY":"310.9257","CENTER_NAME":"EARTH","RA_OF_ASC_NODE":"49.6823","OBJECT_TYPE":"PAYLOAD"},{"CENTER_NAME":"EARTH","MEAN_ANOMALY":"304.4067","SEMIMAJOR_AXIS":"6925.353","OBJECT_TYPE":"PAYLOAD","RA_OF_ASC_NODE":"49.8834","REV_AT_EPOCH":"13185","FILE":"3468079","OBJECT_NAME":"STARLINK-1094","PERIOD":"95.592","EPOCH":"2022-05-27T20:42:34.299936","CLASSIFICATION_TYPE":"U","TLE_LINE1":"1 44941U 20001AD  22147.86289699  .00002449  00000-0  18325-3 0  9999","ELEMENT_SET_NO":"999","MEAN_MOTION":"15.06398516","NORAD_CAT_ID":"44941","REF_FRAME":"TEME","SITE":"AFETR","OBJECT_ID":"2020-001AD","PERIAPSIS":"546.030","MEAN_MOTION_DDOT":"0.0000000000000","TIME_SYSTEM":"UTC","GP_ID":"204714321","INCLINATION":"53.0560","ECCENTRICITY":"0.00017160","MEAN_MOTION_DOT":"0.00002449","EPHEMERIS_TYPE":"0","COUNTRY_CODE":"US","ARG_OF_PERICENTER":"55.7084","RCS_SIZE":"LARGE","MEAN_ELEMENT_THEORY":"SGP4","TLE_LINE2":"2 44941  53.0560  49.8834 0001716  55.7084 304.4067 15.06398516131859","APOAPSIS":"548.406","BSTAR":"0.00018325000000","LAUNCH_DATE":"2020-01-07","DECAY_DATE":null},{"RA_OF_ASC_NODE":"49.6268","OBJECT_TYPE":"PAYLOAD","SEMIMAJOR_AXIS":"6923.485","MEAN_ANOMALY":"274.2802","CENTER_NAME":"EARTH","OBJECT_ID":"2020-001AE","PERIAPSIS":"543.978","REF_FRAME":"TEME","SITE":"AFETR","NORAD_CAT_ID":"44942","ELEMENT_SET_NO":"999","TLE_LINE1":"1 44942U 20001AE  22147.91175104  .00021127  00000-0  14097-2 0  9996","MEAN_MOTION":"15.07008296","CLASSIFICATION_TYPE":"U","EPOCH":"2022-05-27T21:52:55.289856","PERIOD":"95.554","OBJECT_NAME":"STARLINK-1096","FILE":"3468079","REV_AT_EPOCH":"13186","EPHEMERIS_TYPE":"0","MEAN_MOTION_DOT":"0.00021127","INCLINATION":"53.0545","ECCENTRICITY":"0.00019820","GP_ID":"204713079","TIME_SYSTEM":"UTC","MEAN_MOTION_DDOT":"0.0000000000000","DECAY_DATE":null,"LAUNCH_DATE":"2020-01-07","APOAPSIS":"546.722","BSTAR":"0.00140970000000","TLE_LINE2":"2 44942  53.0545  49.6268 0001982  85.8414 274.2802 15.07008296131864","MEAN_ELEMENT_THEORY":"SGP4","RCS_SIZE":"LARGE","ARG_OF_PERICENTER":"85.8414","COUNTRY_CODE":"US"}];
